NORAD_CAT_ID,OBJECT_NAME,OBJECT_TYPE,EPOCH,MEAN_MOTION,ECCENTRICITY,INCLINATION,RA_OF_ASC_NODE,ARG_OF_PERICENTER,MEAN_ANOMALY,BSTAR,MEAN_MOTION_DOT,MEAN_MOTION_DDOT,TLE_LINE0,TLE_LINE1,TLE_LINE2,SEMIMAJOR_AXIS,PERIOD,APOGEE,PERIGEE,DECAYED
52664.0,STARLINK-4070,PAYLOAD,2022-08-23 14:00:01,15.08863103,0.0002367,53.215,203.5926,52.9899,139.7608,-0.0020987,-0.00033557,0.0,0 STARLINK-4070,1 52664U 22053J   22235.58334491 -.00033557  00000-0 -20987-2 0  9999,2 52664  53.2150 203.5926 0002367  52.9899 139.7608 15.08863103  1301,6917.81,95.436,541.312,538.0369999999998,0.0
52664.0,STARLINK-4070,PAYLOAD,2022-08-23 22:00:01,15.08861445,0.000229,53.2153,202.0955,57.8093,146.6088,-0.0013612,-0.0002189999999999,0.0,0 STARLINK-4070,1 52664U 22053J   22235.91668981 -.00021900  00000-0 -13612-2 0  9996,2 52664  53.2153 202.0955 0002290  57.8093 146.6088 15.08861445  1301,6917.815,95.436,541.264,538.096,0.0
52664.0,STARLINK-4070,PAYLOAD,2022-08-24 14:00:01,15.08841768,0.0002304,53.2149,199.1033,53.7447,173.7971,-0.0020388,-0.00032592,0.0,0 STARLINK-4070,1 52664U 22053J   22236.58334491 -.00032592  00000-0 -20388-2 0  9993,2 52664  53.2149 199.1033 0002304  53.7447 173.7971 15.08841768 15823,6917.875,95.437,541.3340000000002,538.146,0.0
52664.0,STARLINK-4070,PAYLOAD,2022-08-24 22:00:00,15.08832817,0.0002290999999999,53.2151,197.605,58.8035,180.3182,0.00035952,5.437e-05,0.0,0 STARLINK-4070,1 52664U 22053J   22236.91667824  .00005437  00000-0  35952-3 0  9999,2 52664  53.2151 197.6050 0002291  58.8035 180.3182 15.08832817  1303,6917.901999999999,95.438,541.352,538.182,0.0
52664.0,STARLINK-4070,PAYLOAD,2022-08-25 06:00:02,15.08818832,0.0002474,53.215,196.1118,53.7187,197.0576,0.0012814,0.00020153,0.0,0 STARLINK-4070,1 52664U 22053J   22237.25002315  .00020153  00000-0  12814-2 0  9998,2 52664  53.2150 196.1118 0002474  53.7187 197.0576 15.08818832 15922,6917.945,95.439,541.5219999999998,538.099,0.0
52664.0,STARLINK-4070,PAYLOAD,2022-08-25 14:00:01,15.08846654,0.0002375,53.2149,194.6142,55.6397,206.6506,-0.0018307,-0.00029312,0.0,0 STARLINK-4070,1 52664U 22053J   22237.58334491 -.00029312  00000-0 -18307-2 0  9998,2 52664  53.2149 194.6142 0002375  55.6397 206.6506 15.08846654  1304,6917.86,95.437,541.368,538.082,0.0
52664.0,STARLINK-4070,PAYLOAD,2022-08-25 22:00:00,15.08842717,0.0002386,53.2151,193.1174,59.9984,213.8782,0.00011316,1.513e-05,0.0,0 STARLINK-4070,1 52664U 22053J   22237.91667824  .00001513  00000-0  11316-3 0  9999,2 52664  53.2151 193.1174 0002386  59.9984 213.8782 15.08842717  1309,6917.871999999999,95.437,541.388,538.086,0.0
52664.0,STARLINK-4070,PAYLOAD,2022-08-26 06:00:00,15.0882358,0.0002572,53.2152,191.6227,55.1383,230.341,0.0017268,0.00027289,0.0,0 STARLINK-4070,1 52664U 22053J   22238.25001157  .00027289  00000-0  17268-2 0  9997,2 52664  53.2152 191.6227 0002572  55.1383 230.3410 15.08823580 16079,6917.931,95.439,541.575,538.016,0.0
52664.0,STARLINK-4070,PAYLOAD,2022-08-26 14:00:01,15.08853171,0.0002465,53.2153,190.1249,57.0133,240.1176,-0.001441,-0.00023158,0.0,0 STARLINK-4070,1 52664U 22053J   22238.58335648 -.00023158  00000-0 -14410-2 0  9997,2 52664  53.2153 190.1249 0002465  57.0133 240.1176 15.08853171  1300,6917.84,95.437,541.41,538.0,0.0
52664.0,STARLINK-4070,PAYLOAD,2022-08-26 22:00:00,15.088559699999998,0.0002495,53.2156,188.6282,60.8343,247.8303,-0.00011229,-2.076e-05,0.0,0 STARLINK-4070,1 52664U 22053J   22238.91667824 -.00002076  00000-0 -11229-3 0  9990,2 52664  53.2156 188.6282 0002495  60.8343 247.8303 15.08855970  1305,6917.831999999999,95.437,541.423,537.971,0.0
52664.0,STARLINK-4070,PAYLOAD,2022-08-27 14:00:01,15.08853438,0.0002489,53.216,185.6357,57.6685,274.2211,-0.002715,-0.00043257,0.0,0 STARLINK-4070,1 52664U 22053J   22239.58334491 -.00043257  00000-0 -27150-2 0  9990,2 52664  53.2160 185.6357 0002489  57.6685 274.2211 15.08853438  1305,6917.839,95.437,541.4259999999998,537.982,0.0
52664.0,STARLINK-4070,PAYLOAD,2022-08-27 22:00:00,15.08845126,0.0002484999999999,53.2163,184.1391,60.3358,283.1424,-0.00040118,-6.669e-05,0.0,0 STARLINK-4070,1 52664U 22053J   22239.91667824 -.00006669  00000-0 -40118-3 0  9992,2 52664  53.2163 184.1391 0002485  60.3358 283.1424 15.08845126  1304,6917.865,95.437,541.4490000000002,538.011,0.0
52664.0,STARLINK-4070,PAYLOAD,2022-08-28 12:00:00,15.08865778,0.0002546,53.2165,181.5211,57.327,216.4454,-0.0020113,-0.0003218,0.0,0 STARLINK-4070,1 52664U 22053J   22240.50001157 -.00032180  00000-0 -20113-2 0  9999,2 52664  53.2165 181.5211 0002546  57.3270 216.4454 15.08865778 16410,6917.802,95.436,541.428,537.905,0.0
52664.0,STARLINK-4070,PAYLOAD,2022-08-28 14:00:01,15.08855301,0.0002501999999999,53.2167,181.1466,58.9875,307.6917,-0.00094296,-0.00015271,0.0,0 STARLINK-4070,1 52664U 22053J   22240.58334491 -.00015271  00000-0 -94296-3 0  9993,2 52664  53.2167 181.1466 0002502  58.9875 307.6917 15.08855301  1300,6917.834,95.437,541.429,537.9680000000002,0.0
52664.0,STARLINK-4070,PAYLOAD,2022-08-28 22:00:00,15.08857668,0.0002479,53.217,179.6503,60.7424,317.5389,-0.0023254,-0.00037127,0.0,0 STARLINK-4070,1 52664U 22053J   22240.91667824 -.00037127  00000-0 -23254-2 0  9998,2 52664  53.2170 179.6503 0002479  60.7424 317.5389 15.08857668  1303,6917.826,95.436,541.406,537.976,0.0
52664.0,STARLINK-4070,PAYLOAD,2022-08-29 04:00:00,15.08822565,0.0002595,53.2169,178.5293,56.5858,240.4,0.00088966,0.00013893,0.0,0 STARLINK-4070,1 52664U 22053J   22241.16667824  .00013893  00000-0  88966-3 0  9990,2 52664  53.2169 178.5293 0002595  56.5858 240.4000 15.08822565 16519,6917.934,95.439,541.594,538.003,0.0
52664.0,STARLINK-4070,PAYLOAD,2022-08-29 14:00:01,15.08833662,0.0002396,53.217,176.6575,59.2891,342.1794,-0.0020815,-0.00033259,0.0,0 STARLINK-4070,1 52664U 22053J   22241.58334491 -.00033259  00000-0 -20815-2 0  9995,2 52664  53.2170 176.6575 0002396  59.2891 342.1794 15.08833662  1300,6917.9,95.438,541.422,538.107,0.0
52664.0,STARLINK-4070,PAYLOAD,2022-08-29 20:00:01,15.08816064,0.0002360999999999,53.2172,175.535,61.8492,258.3018,0.0013575,0.00021369,0.0,0 STARLINK-4070,1 52664U 22053J   22241.83334491  .00021369  00000-0  13575-2 0  9995,2 52664  53.2172 175.5350 0002361  61.8492 258.3018 15.08816064 16613,6917.954000000002,95.439,541.452,538.185,0.0
52664.0,STARLINK-4070,PAYLOAD,2022-08-29 22:00:00,15.088347099999998,0.0002387,53.2172,175.1616,60.685,352.3539,-0.00093445,-0.00015128,0.0,0 STARLINK-4070,1 52664U 22053J   22241.91667824 -.00015128  00000-0 -93445-3 0  9996,2 52664  53.2172 175.1616 0002387  60.6850 352.3539 15.08834710  1308,6917.897,95.438,541.413,538.11,0.0
52664.0,STARLINK-4070,PAYLOAD,2022-08-30 14:00:01,15.08821625,0.0002356999999999,53.2169,172.1687,61.1298,15.0658,0.0011164,0.00017515,0.0,0 STARLINK-4070,1 52664U 22053J   22242.58334491  .00017515  00000-0  11164-2 0  9998,2 52664  53.2169 172.1687 0002357  61.1298  15.0658 15.08821625 16737,6917.937,95.439,541.432,538.1709999999998,0.0
52664.0,STARLINK-4070,PAYLOAD,2022-08-30 22:00:00,15.08855077,0.0002403,53.2168,170.6729,62.749,25.0219,-0.0012308,-0.00019832,0.0,0 STARLINK-4070,1 52664U 22053J   22242.91667824 -.00019832  00000-0 -12308-2 0  9991,2 52664  53.2168 170.6729 0002403  62.7490  25.0219 15.08855077  1308,6917.834,95.437,541.362,538.0369999999998,0.0
52664.0,STARLINK-4070,PAYLOAD,2022-08-31 14:00:01,15.08831066,0.0002133999999999,53.2162,167.6799,60.7171,50.182,0.001598,0.0002523,0.0,0 STARLINK-4070,1 52664U 22053J   22243.58334491  .00025230  00000-0  15980-2 0  9992,2 52664  53.2162 167.6799 0002134  60.7171  50.1820 15.08831066  1309,6917.908,95.438,541.249,538.2959999999998,0.0
52664.0,STARLINK-4070,PAYLOAD,2022-08-31 20:00:01,15.08854197,0.0002177999999999,53.2163,166.5577,63.1061,326.4812,0.00028378,4.233e-05,0.0,0 STARLINK-4070,1 52664U 22053J   22243.83334491  .00004233  00000-0  28378-3 0  9996,2 52664  53.2163 166.5577 0002178  63.1061 326.4812 15.08854197 16929,6917.837,95.437,541.2090000000002,538.195,0.0
52664.0,STARLINK-4070,PAYLOAD,2022-08-31 22:00:00,15.08864649,0.0002225,53.2161,166.1841,61.7434,60.7421,-0.0015578,-0.00025013,0.0,0 STARLINK-4070,1 52664U 22053J   22243.91667824 -.00025013  00000-0 -15578-2 0  9992,2 52664  53.2161 166.1841 0002225  61.7434  60.7421 15.08864649  1301,6917.805,95.436,541.2090000000002,538.131,0.0
52664.0,STARLINK-4070,PAYLOAD,2022-09-01 14:00:01,15.08839678,0.0002110999999999,53.2155,163.1907,61.8844,83.8968,-0.00024486,-4.183e-05,0.0,0 STARLINK-4070,1 52664U 22053J   22244.58335648 -.00004183  00000-0 -24486-3 0  9996,2 52664  53.2155 163.1907 0002111  61.8844  83.8968 15.08839678  1300,6917.880999999999,95.438,541.207,538.286,0.0
52664.0,STARLINK-4070,PAYLOAD,2022-09-01 22:00:00,15.08854987,0.000218,53.2155,161.695,62.2307,95.0793,-0.0014740999999999,-0.00023682,0.0,0 STARLINK-4070,1 52664U 22053J   22244.91667824 -.00023682  00000-0 -14741-2 0  9994,2 52664  53.2155 161.6950 0002180  62.2307  95.0793 15.08854987 17089,6917.835,95.437,541.2080000000002,538.191,0.0
52664.0,STARLINK-4070,PAYLOAD,2022-09-02 14:00:01,15.08840281,0.0002110999999999,53.215,158.7014,62.021,118.4903,-0.00057267,-9.391e-05,0.0,0 STARLINK-4070,1 52664U 22053J   22245.58334491 -.00009391  00000-0 -57267-3 0  9991,2 52664  53.2150 158.7014 0002111  62.0210 118.4903 15.08840281  1300,6917.88,95.438,541.205,538.284,0.0
52664.0,STARLINK-4070,PAYLOAD,2022-09-02 20:00:01,15.08841928,0.0002143,53.2151,157.5793,63.3442,35.8597,-0.0011209,-0.00018085,0.0,0 STARLINK-4070,1 52664U 22053J   22245.83334491 -.00018085  00000-0 -11209-2 0  9994,2 52664  53.2151 157.5793 0002143  63.3442  35.8597 15.08841928 17226,6917.874,95.437,541.222,538.257,0.0
52664.0,STARLINK-4070,PAYLOAD,2022-09-02 22:00:01,15.08840589,0.0002177999999999,53.2151,157.2058,61.4467,130.7188,-0.0014034,-0.00022555,0.0,0 STARLINK-4070,1 52664U 22053J   22245.91668981 -.00022555  00000-0 -14034-2 0  9993,2 52664  53.2151 157.2058 0002178  61.4467 130.7188 15.08840589  1306,6917.879,95.438,541.25,538.237,0.0
